start=new Date('2022-03-11T00:00:00.000Z').valueOf();
sats=[{"ELEMENT_SET_NO":"999","TIME_SYSTEM":"UTC","BSTAR":"0.00184710000000","REV_AT_EPOCH":"15315","TLE_LINE2":"2 44238  53.0023 208.5617 0001757  34.2056 325.9052 15.22708167153155","SEMIMAJOR_AXIS":"6875.813","DECAY_DATE":null,"MEAN_MOTION_DOT":"0.00043546","OBJECT_TYPE":"PAYLOAD","CENTER_NAME":"EARTH","INCLINATION":"53.0023","ARG_OF_PERICENTER":"34.2056","ECCENTRICITY":"0.00017570","OBJECT_NAME":"STARLINK-24","SITE":"AFETR","GP_ID":"198436326","MEAN_ELEMENT_THEORY":"SGP4","RA_OF_ASC_NODE":"208.5617","LAUNCH_DATE":"2019-05-24","OBJECT_ID":"2019-029D","CLASSIFICATION_TYPE":"U","PERIAPSIS":"496.470","REF_FRAME":"TEME","EPHEMERIS_TYPE":"0","NORAD_CAT_ID":"44238","APOAPSIS":"498.886","MEAN_ANOMALY":"325.9052","COUNTRY_CODE":"US","FILE":"3354091","MEAN_MOTION":"15.22708167","TLE_LINE1":"1 44238U 19029D   22069.85724404  .00043546  00000-0  18471-2 0  9990","PERIOD":"94.568","RCS_SIZE":"LARGE","EPOCH":"2022-03-10T20:34:25.885056","MEAN_MOTION_DDOT":"0.0000000000000"},{"COUNTRY_CODE":"US","MEAN_ANOMALY":"146.3909","TLE_LINE1":"1 44249U 19029Q   22069.69763243  .00056955  00000-0  18397-2 0  9993","PERIOD":"94.021","RCS_SIZE":"LARGE","EPOCH":"2022-03-10T16:44:35.441952","MEAN_MOTION_DDOT":"0.0000000000000","FILE":"3354091","MEAN_MOTION":"15.31579244","REF_FRAME":"TEME","NORAD_CAT_ID":"44249","APOAPSIS":"473.154","EPHEMERIS_TYPE":"0","PERIAPSIS":"469.050","RA_OF_ASC_NODE":"171.9693","LAUNCH_DATE":"2019-05-24","MEAN_ELEMENT_THEORY":"SGP4","OBJECT_ID":"2019-029Q","CLASSIFICATION_TYPE":"U","OBJECT_NAME":"STARLINK-61","ARG_OF_PERICENTER":"213.6900","ECCENTRICITY":"0.00029960","SITE":"AFETR","GP_ID":"198435082","MEAN_MOTION_DOT":"0.00056955","INCLINATION":"52.9751","OBJECT_TYPE":"PAYLOAD","CENTER_NAME":"EARTH","BSTAR":"0.00183970000000","REV_AT_EPOCH":"15434","ELEMENT_SET_NO":"999","TIME_SYSTEM":"UTC","SEMIMAJOR_AXIS":"6849.237","DECAY_DATE":null,"TLE_LINE2":"2 44249  52.9751 171.9693 0002996 213.6900 146.3909 15.31579244154347"},{"EPHEMERIS_TYPE":"0","NORAD_CAT_ID":"44252","APOAPSIS":"492.617","REF_FRAME":"TEME","PERIAPSIS":"486.705","MEAN_MOTION":"15.25375312","FILE":"3354091","TLE_LINE1":"1 44252U 19029T   22069.69509146  .00032485  00000-0  12780-2 0  9999","EPOCH":"2022-03-10T16:40:55.902144","RCS_SIZE":"LARGE","PERIOD":"94.403","MEAN_MOTION_DDOT":"0.0000000000000","MEAN_ANOMALY":"347.6406","COUNTRY_CODE":"US","OBJECT_TYPE":"PAYLOAD","CENTER_NAME":"EARTH","INCLINATION":"53.0016","MEAN_MOTION_DOT":"0.00032485","TLE_LINE2":"2 44252  53.0016 206.8718 0004304  12.4696 347.6406 15.25375312153806","SEMIMAJOR_AXIS":"6867.796","DECAY_DATE":null,"ELEMENT_SET_NO":"999","TIME_SYSTEM":"UTC","BSTAR":"0.00127800000000","REV_AT_EPOCH":"15380","OBJECT_ID":"2019-029T","CLASSIFICATION_TYPE":"U","MEAN_ELEMENT_THEORY":"SGP4","RA_OF_ASC_NODE":"206.8718","LAUNCH_DATE":"2019-05-24","SITE":"AFETR","GP_ID":"198435332","ARG_OF_PERICENTER":"12.4696","ECCENTRICITY":"0.00043040","OBJECT_NAME":"STARLINK-71"},{"OBJECT_ID":"2019-029AZ","CLASSIFICATION_TYPE":"U","LAUNCH_DATE":"2019-05-24","RA_OF_ASC_NODE":"104.3627","MEAN_ELEMENT_THEORY":"SGP4","GP_ID":"198404489","SITE":"AFETR","OBJECT_NAME":"STARLINK-80","ECCENTRICITY":"0.00073800","ARG_OF_PERICENTER":"39.0971","INCLINATION":"53.0123","CENTER_NAME":"EARTH","OBJECT_TYPE":"PAYLOAD","MEAN_MOTION_DOT":"0.00104491","DECAY_DATE":null,"SEMIMAJOR_AXIS":"6796.063","TLE_LINE2":"2 44282  53.0123 104.3627 0007380  39.0971 321.0568 15.49589425156342","REV_AT_EPOCH":"15634","BSTAR":"0.00184170000000","TIME_SYSTEM":"UTC","ELEMENT_SET_NO":"999","RCS_SIZE":"LARGE","PERIOD":"92.928","MEAN_MOTION_DDOT":"0.0000000000000","EPOCH":"2022-03-10T12:29:40.911360","TLE_LINE1":"1 44282U 19029AZ  22069.52061240  .00104491  00000-0  18417-2 0  9992","FILE":"3353580","MEAN_MOTION":"15.49589425","COUNTRY_CODE":"US","MEAN_ANOMALY":"321.0568","APOAPSIS":"422.944","NORAD_CAT_ID":"44282","EPHEMERIS_TYPE":"0","REF_FRAME":"TEME","PERIAPSIS":"412.913"},{"MEAN_ANOMALY":"281.3661","COUNTRY_CODE":"US","FILE":"3354091","MEAN_MOTION":"15.06399491","TLE_LINE1":"1 44713U 19074A   22069.82878063  .00004407  00000-0  31455-3 0  9997","RCS_SIZE":"LARGE","PERIOD":"95.592","MEAN_MOTION_DDOT":"0.0000000000000","EPOCH":"2022-03-10T19:53:26.646432","REF_FRAME":"TEME","EPHEMERIS_TYPE":"0","NORAD_CAT_ID":"44713","APOAPSIS":"548.049","PERIAPSIS":"546.381","MEAN_ELEMENT_THEORY":"SGP4","RA_OF_ASC_NODE":"260.1847","LAUNCH_DATE":"2019-11-11","CLASSIFICATION_TYPE":"U","OBJECT_ID":"2019-074A","ARG_OF_PERICENTER":"78.7463","ECCENTRICITY":"0.00012040","OBJECT_NAME":"STARLINK-1007","SITE":"AFETR","GP_ID":"198436865","MEAN_MOTION_DOT":"0.00004407","OBJECT_TYPE":"PAYLOAD","CENTER_NAME":"EARTH","INCLINATION":"53.0518","ELEMENT_SET_NO":"999","TIME_SYSTEM":"UTC","BSTAR":"0.00031455000000","REV_AT_EPOCH":"12871","TLE_LINE2":"2 44713  53.0518 260.1847 0001204  78.7463 281.3661 15.06399491128716","SEMIMAJOR_AXIS":"6925.350","DECAY_DATE":null},{"RA_OF_ASC_NODE":"260.2943","LAUNCH_DATE":"2019-11-11","MEAN_ELEMENT_THEORY":"SGP4","OBJECT_ID":"2019-074B","CLASSIFICATION_TYPE":"U","OBJECT_NAME":"STARLINK-1008","ARG_OF_PERICENTER":"72.0572","ECCENTRICITY":"0.00014810","SITE":"AFETR","GP_ID":"198435621","MEAN_MOTION_DOT":"-0.00000168","INCLINATION":"53.0550","OBJECT_TYPE":"PAYLOAD","CENTER_NAME":"EARTH","BSTAR":"0.00000761920000","REV_AT_EPOCH":"12871","ELEMENT_SET_NO":"999","TIME_SYSTEM":"UTC","SEMIMAJOR_AXIS":"6925.379","DECAY_DATE":null,"TLE_LINE2":"2 44714  53.0550 260.2943 0001481  72.0572 288.0578 15.06390133128711","COUNTRY_CODE":"US","MEAN_ANOMALY":"288.0578","TLE_LINE1":"1 44714U 19074B   22069.80760329 -.00000168  00000-0  76192-5 0  9991","PERIOD":"95.593","RCS_SIZE":"LARGE","EPOCH":"2022-03-10T19:22:56.924256","MEAN_MOTION_DDOT":"0.0000000000000","FILE":"3354091","MEAN_MOTION":"15.06390133","REF_FRAME":"TEME","NORAD_CAT_ID":"44714","APOAPSIS":"548.269","EPHEMERIS_TYPE":"0","PERIAPSIS":"546.218"},{"INCLINATION":"53.0541","CENTER_NAME":"EARTH","OBJECT_TYPE":"PAYLOAD","MEAN_MOTION_DOT":"0.00001982","DECAY_DATE":null,"SEMIMAJOR_AXIS":"6925.381","TLE_LINE2":"2 44715  53.0541 260.3353 0001392  86.1032 274.0116 15.06389509128703","REV_AT_EPOCH":"12870","BSTAR":"0.00015195000000","TIME_SYSTEM":"UTC","ELEMENT_SET_NO":"999","CLASSIFICATION_TYPE":"U","OBJECT_ID":"2019-074C","LAUNCH_DATE":"2019-11-11","RA_OF_ASC_NODE":"260.3353","MEAN_ELEMENT_THEORY":"SGP4","GP_ID":"198435871","SITE":"AFETR","OBJECT_NAME":"STARLINK-1009","ECCENTRICITY":"0.00013920","ARG_OF_PERICENTER":"86.1032","APOAPSIS":"548.210","NORAD_CAT_ID":"44715","EPHEMERIS_TYPE":"0","REF_FRAME":"TEME","PERIAPSIS":"546.282","EPOCH":"2022-03-10T19:07:02.570592","RCS_SIZE":"LARGE","PERIOD":"95.593","MEAN_MOTION_DDOT":"0.0000000000000","TLE_LINE1":"1 44715U 19074C   22069.79655753  .00001982  00000-0  15195-3 0  9992","MEAN_MOTION":"15.06389509","FILE":"3354091","COUNTRY_CODE":"US","MEAN_ANOMALY":"274.0116"},{"ELEMENT_SET_NO":"999","TIME_SYSTEM":"UTC","BSTAR":"0.00003635900000","REV_AT_EPOCH":"12869","TLE_LINE2":"2 44716  53.0540 260.2606 0001442  85.1585 274.9568 15.06397495128692","SEMIMAJOR_AXIS":"6925.356","DECAY_DATE":null,"MEAN_MOTION_DOT":"0.00000260","OBJECT_TYPE":"PAYLOAD","CENTER_NAME":"EARTH","INCLINATION":"53.0540","ARG_OF_PERICENTER":"85.1585","ECCENTRICITY":"0.00014420","OBJECT_NAME":"STARLINK-1010","SITE":"AFETR","GP_ID":"198436619","MEAN_ELEMENT_THEORY":"SGP4","RA_OF_ASC_NODE":"260.2606","LAUNCH_DATE":"2019-11-11","OBJECT_ID":"2019-074D","CLASSIFICATION_TYPE":"U","PERIAPSIS":"546.223","REF_FRAME":"TEME","EPHEMERIS_TYPE":"0","NORAD_CAT_ID":"44716","APOAPSIS":"548.220","MEAN_ANOMALY":"274.9568","COUNTRY_CODE":"US","FILE":"3354091","MEAN_MOTION":"15.06397495","TLE_LINE1":"1 44716U 19074D   22069.81497003  .00000260  00000-0  36359-4 0  9992","RCS_SIZE":"LARGE","MEAN_MOTION_DDOT":"0.0000000000000","PERIOD":"95.592","EPOCH":"2022-03-10T19:33:33.410592"},{"EPHEMERIS_TYPE":"0","NORAD_CAT_ID":"44717","APOAPSIS":"548.583","REF_FRAME":"TEME","PERIAPSIS":"545.852","FILE":"3354091","MEAN_MOTION":"15.06398776","TLE_LINE1":"1 44717U 19074E   22069.87949217  .00004736  00000-0  33663-3 0  9994","EPOCH":"2022-03-10T21:06:28.123488","RCS_SIZE":"LARGE","PERIOD":"95.592","MEAN_MOTION_DDOT":"0.0000000000000","MEAN_ANOMALY":"300.0489","COUNTRY_CODE":"US","OBJECT_TYPE":"PAYLOAD","CENTER_NAME":"EARTH","INCLINATION":"53.0535","MEAN_MOTION_DOT":"0.00004736","TLE_LINE2":"2 44717  53.0535 279.9496 0001972  60.0695 300.0489 15.06398776128442","SEMIMAJOR_AXIS":"6925.352","DECAY_DATE":null,"ELEMENT_SET_NO":"999","TIME_SYSTEM":"UTC","BSTAR":"0.00033663000000","REV_AT_EPOCH":"12844","OBJECT_ID":"2019-074E","CLASSIFICATION_TYPE":"U","MEAN_ELEMENT_THEORY":"SGP4","RA_OF_ASC_NODE":"279.9496","LAUNCH_DATE":"2019-11-11","SITE":"AFETR","GP_ID":"198436366","ARG_OF_PERICENTER":"60.0695","ECCENTRICITY":"0.00019720","OBJECT_NAME":"STARLINK-1011"},{"FILE":"3354091","MEAN_MOTION":"15.06389472","TLE_LINE1":"1 44718U 19074F   22069.78548450  .00000035  00000-0  21251-4 0  9998","RCS_SIZE":"LARGE","PERIOD":"95.593","EPOCH":"2022-03-10T18:51:05.860800","MEAN_MOTION_DDOT":"0.0000000000000","MEAN_ANOMALY":"278.8097","COUNTRY_CODE":"US","PERIAPSIS":"546.150","EPHEMERIS_TYPE":"0","NORAD_CAT_ID":"44718","APOAPSIS":"548.342","REF_FRAME":"TEME","SITE":"AFETR","GP_ID":"198435122","ARG_OF_PERICENTER":"81.3071","ECCENTRICITY":"0.00015830","OBJECT_NAME":"STARLINK-1012","CLASSIFICATION_TYPE":"U","OBJECT_ID":"2019-074F","MEAN_ELEMENT_THEORY":"SGP4","RA_OF_ASC_NODE":"260.3843","LAUNCH_DATE":"2019-11-11","TLE_LINE2":"2 44718  53.0542 260.3843 0001583  81.3071 278.8097 15.06389472128702","SEMIMAJOR_AXIS":"6925.381","DECAY_DATE":null,"ELEMENT_SET_NO":"999","TIME_SYSTEM":"UTC","BSTAR":"0.00002125100000","REV_AT_EPOCH":"12870","OBJECT_TYPE":"PAYLOAD","CENTER_NAME":"EARTH","INCLINATION":"53.0542","MEAN_MOTION_DOT":"0.00000035"}];
